start=new Date('2022-09-17T00:00:00.000Z').valueOf();
sats=[{"REV_AT_EPOCH":"7431","MEAN_MOTION_DDOT":"0.0000000000000","OBJECT_ID":"2021-041Y","PERIOD":"95.591","MEAN_ANOMALY":"278.5280","NORAD_CAT_ID":"48575","RCS_SIZE":"LARGE","ELEMENT_SET_NO":"999","MEAN_ELEMENT_THEORY":"SGP4","DECAY_DATE":null,"SEMIMAJOR_AXIS":"6925.317","OBJECT_TYPE":"PAYLOAD","ARG_OF_PERICENTER":"81.5866","ECCENTRICITY":"0.00013820","PERIAPSIS":"546.225","RA_OF_ASC_NODE":"34.2934","TIME_SYSTEM":"UTC","TLE_LINE1":"1 48575U 21041Y   22259.44137743  .00000463  00000-0  49963-4 0  9998","COUNTRY_CODE":"US","EPOCH":"2022-09-16T10:35:35.009952","FILE":"3575604","MEAN_MOTION":"15.06410429","REF_FRAME":"TEME","LAUNCH_DATE":"2021-05-15","GP_ID":"212717875","INCLINATION":"53.0550","BSTAR":"0.00004996300000","EPHEMERIS_TYPE":"0","CLASSIFICATION_TYPE":"U","TLE_LINE2":"2 48575  53.0550  34.2934 0001382  81.5866 278.5280 15.06410429 74311","SITE":"AFETR","OBJECT_NAME":"STARLINK-2227","CENTER_NAME":"EARTH","APOAPSIS":"548.139","MEAN_MOTION_DOT":"0.00000463"},{"OBJECT_NAME":"STARLINK-2228","TLE_LINE2":"2 48576  53.0586  47.7956 0002210  75.5447 284.5787 15.06409780 74141","SITE":"AFETR","CENTER_NAME":"EARTH","CLASSIFICATION_TYPE":"U","MEAN_MOTION_DOT":"-0.00002968","APOAPSIS":"548.714","EPOCH":"2022-09-16T16:58:20.661312","MEAN_MOTION":"15.06409780","FILE":"3575787","COUNTRY_CODE":"US","INCLINATION":"53.0586","EPHEMERIS_TYPE":"0","BSTAR":"-0.00018038000000","REF_FRAME":"TEME","LAUNCH_DATE":"2021-05-15","GP_ID":"212746927","SEMIMAJOR_AXIS":"6925.319","DECAY_DATE":null,"OBJECT_TYPE":"PAYLOAD","ECCENTRICITY":"0.00022100","ARG_OF_PERICENTER":"75.5447","MEAN_ELEMENT_THEORY":"SGP4","TLE_LINE1":"1 48576U 21041Z   22259.70718358 -.00002968  00000-0 -18038-3 0  9997","PERIAPSIS":"545.653","TIME_SYSTEM":"UTC","RA_OF_ASC_NODE":"47.7956","OBJECT_ID":"2021-041Z","NORAD_CAT_ID":"48576","MEAN_ANOMALY":"284.5787","PERIOD":"95.592","MEAN_MOTION_DDOT":"0.0000000000000","REV_AT_EPOCH":"7414","RCS_SIZE":"LARGE","ELEMENT_SET_NO":"999"},{"OBJECT_ID":"2021-041AA","PERIOD":"95.592","MEAN_ANOMALY":"282.9444","NORAD_CAT_ID":"48577","MEAN_MOTION_DDOT":"0.0000000000000","REV_AT_EPOCH":"7379","RCS_SIZE":"LARGE","ELEMENT_SET_NO":"999","DECAY_DATE":null,"SEMIMAJOR_AXIS":"6925.331","OBJECT_TYPE":"PAYLOAD","ARG_OF_PERICENTER":"77.1717","ECCENTRICITY":"0.00015390","MEAN_ELEMENT_THEORY":"SGP4","TLE_LINE1":"1 48577U 21041AA  22259.78044982  .00003308  00000-0  24082-3 0  9994","PERIAPSIS":"546.131","TIME_SYSTEM":"UTC","RA_OF_ASC_NODE":"72.4554","EPOCH":"2022-09-16T18:43:50.864448","FILE":"3575787","MEAN_MOTION":"15.06405598","COUNTRY_CODE":"US","INCLINATION":"53.0545","BSTAR":"0.00024082000000","EPHEMERIS_TYPE":"0","LAUNCH_DATE":"2021-05-15","REF_FRAME":"TEME","GP_ID":"212747177","SITE":"AFETR","TLE_LINE2":"2 48577  53.0545  72.4554 0001539  77.1717 282.9444 15.06405598 73792","CENTER_NAME":"EARTH","OBJECT_NAME":"STARLINK-2231","CLASSIFICATION_TYPE":"U","MEAN_MOTION_DOT":"0.00003308","APOAPSIS":"548.262"},{"MEAN_MOTION_DDOT":"0.0000000000000","REV_AT_EPOCH":"7379","OBJECT_ID":"2021-041AB","NORAD_CAT_ID":"48578","PERIOD":"95.592","MEAN_ANOMALY":"288.6773","RCS_SIZE":"LARGE","ELEMENT_SET_NO":"999","MEAN_ELEMENT_THEORY":"SGP4","DECAY_DATE":null,"OBJECT_TYPE":"PAYLOAD","SEMIMAJOR_AXIS":"6925.355","ARG_OF_PERICENTER":"71.4374","ECCENTRICITY":"0.00014500","PERIAPSIS":"546.216","RA_OF_ASC_NODE":"72.8472","TIME_SYSTEM":"UTC","TLE_LINE1":"1 48578U 21041AB  22259.81000127  .00000585  00000-0  58143-4 0  9992","COUNTRY_CODE":"US","EPOCH":"2022-09-16T19:26:24.109728","MEAN_MOTION":"15.06397952","FILE":"3575787","REF_FRAME":"TEME","LAUNCH_DATE":"2021-05-15","GP_ID":"212748428","INCLINATION":"53.0554","EPHEMERIS_TYPE":"0","BSTAR":"0.00005814300000","CLASSIFICATION_TYPE":"U","SITE":"AFETR","TLE_LINE2":"2 48578  53.0554  72.8472 0001450  71.4374 288.6773 15.06397952 73796","CENTER_NAME":"EARTH","OBJECT_NAME":"STARLINK-2232","APOAPSIS":"548.224","MEAN_MOTION_DOT":"0.00000585"},{"RA_OF_ASC_NODE":"72.2222","TIME_SYSTEM":"UTC","PERIAPSIS":"546.217","TLE_LINE1":"1 48579U 21041AC  22259.83573303  .00001372  00000-0  11097-3 0  9997","MEAN_ELEMENT_THEORY":"SGP4","ECCENTRICITY":"0.00014430","ARG_OF_PERICENTER":"74.1356","DECAY_DATE":null,"OBJECT_TYPE":"PAYLOAD","SEMIMAJOR_AXIS":"6925.352","ELEMENT_SET_NO":"999","RCS_SIZE":"LARGE","MEAN_MOTION_DDOT":"0.0000000000000","REV_AT_EPOCH":"7380","NORAD_CAT_ID":"48579","MEAN_ANOMALY":"285.9792","PERIOD":"95.592","OBJECT_ID":"2021-041AC","APOAPSIS":"548.216","MEAN_MOTION_DOT":"0.00001372","CLASSIFICATION_TYPE":"U","TLE_LINE2":"2 48579  53.0547  72.2222 0001443  74.1356 285.9792 15.06399033 73803","SITE":"AFETR","OBJECT_NAME":"STARLINK-2233","CENTER_NAME":"EARTH","GP_ID":"212748679","REF_FRAME":"TEME","LAUNCH_DATE":"2021-05-15","EPHEMERIS_TYPE":"0","BSTAR":"0.00011097000000","INCLINATION":"53.0547","COUNTRY_CODE":"US","MEAN_MOTION":"15.06399033","FILE":"3575787","EPOCH":"2022-09-16T20:03:27.333792"},{"MEAN_ELEMENT_THEORY":"SGP4","DECAY_DATE":null,"SEMIMAJOR_AXIS":"6925.375","OBJECT_TYPE":"PAYLOAD","ECCENTRICITY":"0.00014720","ARG_OF_PERICENTER":"78.9944","PERIAPSIS":"546.220","TIME_SYSTEM":"UTC","RA_OF_ASC_NODE":"47.3793","TLE_LINE1":"1 48580U 21041AD  22259.80208396 -.00001058  00000-0 -52151-4 0  9993","REV_AT_EPOCH":"7415","MEAN_MOTION_DDOT":"0.0000000000000","OBJECT_ID":"2021-041AD","PERIOD":"95.593","MEAN_ANOMALY":"281.1210","NORAD_CAT_ID":"48580","RCS_SIZE":"LARGE","ELEMENT_SET_NO":"999","CLASSIFICATION_TYPE":"U","SITE":"AFETR","TLE_LINE2":"2 48580  53.0559  47.3793 0001472  78.9944 281.1210 15.06391424 74159","OBJECT_NAME":"STARLINK-2234","CENTER_NAME":"EARTH","APOAPSIS":"548.259","MEAN_MOTION_DOT":"-0.00001058","COUNTRY_CODE":"US","EPOCH":"2022-09-16T19:15:00.054144","FILE":"3575787","MEAN_MOTION":"15.06391424","LAUNCH_DATE":"2021-05-15","REF_FRAME":"TEME","GP_ID":"212747427","INCLINATION":"53.0559","BSTAR":"-0.00005215100000","EPHEMERIS_TYPE":"0"},{"REF_FRAME":"TEME","LAUNCH_DATE":"2021-05-15","GP_ID":"212747677","INCLINATION":"53.0573","EPHEMERIS_TYPE":"0","BSTAR":"0.00007163300000","COUNTRY_CODE":"US","EPOCH":"2022-09-16T18:19:18.070176","MEAN_MOTION":"15.06395491","FILE":"3575787","APOAPSIS":"548.344","MEAN_MOTION_DOT":"0.00000785","CLASSIFICATION_TYPE":"U","TLE_LINE2":"2 48581  53.0573  37.5425 0001612  85.5265 274.5908 15.06395491 74298","OBJECT_NAME":"STARLINK-2235","SITE":"AFETR","CENTER_NAME":"EARTH","RCS_SIZE":"LARGE","ELEMENT_SET_NO":"999","REV_AT_EPOCH":"7429","MEAN_MOTION_DDOT":"0.0000000000000","OBJECT_ID":"2021-041AE","NORAD_CAT_ID":"48581","MEAN_ANOMALY":"274.5908","PERIOD":"95.592","PERIAPSIS":"546.111","RA_OF_ASC_NODE":"37.5425","TIME_SYSTEM":"UTC","TLE_LINE1":"1 48581U 21041AE  22259.76340359  .00000785  00000-0  71633-4 0  9995","MEAN_ELEMENT_THEORY":"SGP4","DECAY_DATE":null,"SEMIMAJOR_AXIS":"6925.362","OBJECT_TYPE":"PAYLOAD","ARG_OF_PERICENTER":"85.5265","ECCENTRICITY":"0.00016120"},{"PERIAPSIS":"546.309","RA_OF_ASC_NODE":"37.4784","TIME_SYSTEM":"UTC","TLE_LINE1":"1 48582U 21041AF  22259.81134136  .00000146  00000-0  28723-4 0  9999","MEAN_ELEMENT_THEORY":"SGP4","SEMIMAJOR_AXIS":"6925.372","DECAY_DATE":null,"OBJECT_TYPE":"PAYLOAD","ARG_OF_PERICENTER":"72.3980","ECCENTRICITY":"0.00013390","RCS_SIZE":"LARGE","ELEMENT_SET_NO":"999","REV_AT_EPOCH":"7429","MEAN_MOTION_DDOT":"0.0000000000000","OBJECT_ID":"2021-041AF","NORAD_CAT_ID":"48582","MEAN_ANOMALY":"287.7156","PERIOD":"95.593","APOAPSIS":"548.164","MEAN_MOTION_DOT":"0.00000146","CLASSIFICATION_TYPE":"U","SITE":"AFETR","TLE_LINE2":"2 48582  53.0553  37.4784 0001339  72.3980 287.7156 15.06392428 74296","CENTER_NAME":"EARTH","OBJECT_NAME":"STARLINK-2236","REF_FRAME":"TEME","LAUNCH_DATE":"2021-05-15","GP_ID":"212747929","INCLINATION":"53.0553","EPHEMERIS_TYPE":"0","BSTAR":"0.00002872300000","COUNTRY_CODE":"US","EPOCH":"2022-09-16T19:28:19.893504","MEAN_MOTION":"15.06392428","FILE":"3575787"},{"TIME_SYSTEM":"UTC","RA_OF_ASC_NODE":"82.2995","PERIAPSIS":"546.195","TLE_LINE1":"1 48583U 21041AG  22259.81638852 -.00000264  00000-0  11835-5 0  9993","MEAN_ELEMENT_THEORY":"SGP4","ARG_OF_PERICENTER":"74.8313","ECCENTRICITY":"0.00014990","DECAY_DATE":null,"OBJECT_TYPE":"PAYLOAD","SEMIMAJOR_AXIS":"6925.368","ELEMENT_SET_NO":"999","RCS_SIZE":"LARGE","REV_AT_EPOCH":"7411","MEAN_MOTION_DDOT":"0.0000000000000","NORAD_CAT_ID":"48583","PERIOD":"95.593","MEAN_ANOMALY":"285.2842","OBJECT_ID":"2021-041AG","APOAPSIS":"548.271","MEAN_MOTION_DOT":"-0.00000264","CLASSIFICATION_TYPE":"U","OBJECT_NAME":"STARLINK-2237","TLE_LINE2":"2 48583  53.0536  82.2995 0001499  74.8313 285.2842 15.06393665 74114","SITE":"AFETR","CENTER_NAME":"EARTH","GP_ID":"212722503","LAUNCH_DATE":"2021-05-15","REF_FRAME":"TEME","EPHEMERIS_TYPE":"0","BSTAR":"0.00000118350000","INCLINATION":"53.0536","COUNTRY_CODE":"US","MEAN_MOTION":"15.06393665","FILE":"3575630","EPOCH":"2022-09-16T19:35:35.968128"},{"TIME_SYSTEM":"UTC","RA_OF_ASC_NODE":"82.4303","PERIAPSIS":"546.259","TLE_LINE1":"1 48584U 21041AH  22259.79059217 -.00000078  00000-0  13630-4 0  9990","MEAN_ELEMENT_THEORY":"SGP4","ECCENTRICITY":"0.00014360","ARG_OF_PERICENTER":"67.0089","DECAY_DATE":null,"SEMIMAJOR_AXIS":"6925.389","OBJECT_TYPE":"PAYLOAD","ELEMENT_SET_NO":"999","RCS_SIZE":"LARGE","REV_AT_EPOCH":"7365","MEAN_MOTION_DDOT":"0.0000000000000","PERIOD":"95.593","MEAN_ANOMALY":"293.1051","NORAD_CAT_ID":"48584","OBJECT_ID":"2021-041AH","APOAPSIS":"548.248","MEAN_MOTION_DOT":"-0.00000078","CLASSIFICATION_TYPE":"U","TLE_LINE2":"2 48584  53.0546  82.4303 0001436  67.0089 293.1051 15.06386871 73655","SITE":"AFETR","CENTER_NAME":"EARTH","OBJECT_NAME":"STARLINK-2238","GP_ID":"212746928","REF_FRAME":"TEME","LAUNCH_DATE":"2021-05-15","BSTAR":"0.00001363000000","EPHEMERIS_TYPE":"0","INCLINATION":"53.0546","COUNTRY_CODE":"US","FILE":"3575787","MEAN_MOTION":"15.06386871","EPOCH":"2022-09-16T18:58:27.163488"}];
